{"spkid": "50736436", "covariance": {"data": [["4.085984059379776E-15", "-5.740265597485039E-15", "4.739631779800584E-12", "-8.909780055865334E-14", "5.415731034740165E-12", "1.461280689052612E-13"], ["-5.740265597485039E-15", "8.065277820853373E-15", "-6.618929279330572E-12", "1.273613089349123E-13", "-7.564540545878741E-12", "-1.911576903001024E-13"], ["4.739631779800584E-12", "-6.618929279330572E-12", "8.015541119533029E-9", "3.073155018703273E-11", "9.050523326269972E-9", "1.071051832965384E-9"], ["-8.909780055865334E-14", "1.273613089349123E-13", "3.073155018703273E-11", "4.871400843150086E-11", "-9.98489042449691E-12", "-1.902430171332852E-11"], ["5.415731034740165E-12", "-7.564540545878741E-12", "9.050523326269972E-9", "-9.98489042449691E-12", "1.02624507473033E-8", "1.248771228524412E-9"], ["1.461280689052612E-13", "-1.911576903001024E-13", "1.071051832965384E-9", "-1.902430171332852E-11", "1.248771228524412E-9", "5.813577459813247E-10"]], "elements": [{"units": null, "title": "eccentricity", "value": ".288054032013199", "name": "e", "sigma": 6.39217025694699e-08, "label": "e"}, {"label": "q", "name": "q", "sigma": 8.98068918338307e-08, "value": "1.001227847818596", "title": "perihelion distance", "units": "au"}, {"sigma": 8.95295544473054e-05, "name": "tp", "value": "2457985.041526960286", "title": "time of perihelion passage", "units": "TDB", "label": "tp"}, {"label": "node", "units": "deg", "title": "longitude of the ascending node", "value": "78.89788321318416", "sigma": 6.97954213623651e-06, "name": "om"}, {"value": "10.82732304515294", "title": "argument of perihelion", "units": "deg", "name": "w", "sigma": 0.000101303754852934, "label": "peri"}, {"label": "i", "units": "deg", "title": "inclination", "value": "8.489019009928453", "name": "i", "sigma": 2.41113613464965e-05}], "labels": ["e", "q", "tp", "node", "peri", "i"], "epoch": "2457814.5"}, "elements": [{"label": "e", "title": "eccentricity", "value": ".2862826605417874", "units": null, "name": "e", "sigma": "6.4452E-8"}, {"label": "a", "name": "a", "sigma": "6.8658E-9", "units": "au", "title": "semi-major axis", "value": "1.402227104722026"}, {"title": "perihelion distance", "value": "1.000793798498397", "units": "au", "name": "q", "sigma": "9.2234E-8", "label": "q"}, {"name": "i", "sigma": "2.405E-5", "units": "deg", "title": "inclination; angle with respect to x-y ecliptic plane", "value": "8.495076037374028", "label": "i"}, {"name": "om", "sigma": "6.9877E-6", "units": "deg", "value": "78.72781839404595", "title": "longitude of the ascending node", "label": "node"}, {"units": "deg", "value": "11.40304960102856", "title": "argument of perihelion", "sigma": ".00010053", "name": "w", "label": "peri"}, {"units": "deg", "title": "mean anomaly", "value": "103.4706168852283", "name": "ma", "sigma": "5.2223E-5", "label": "M"}, {"label": "tp", "name": "tp", "sigma": "8.7515E-5", "title": "time of perihelion passage", "value": "2461026.182695813010", "units": "TDB"}, {"title": "sidereal orbital period", "value": "606.4932383357161", "units": "d", "name": "per", "sigma": "4.4544E-6", "label": "period"}, {"name": "n", "sigma": "4.3596E-9", "units": "deg/d", "value": ".5935762795771301", "title": "mean motion", "label": "n"}, {"label": "Q", "units": "au", "title": "aphelion distance", "value": "1.803660410945656", "sigma": "8.8314E-9", "name": "ad"}], "epoch": "2461200.5"}